{
    "links": {
        "self": "http://www.neowsapp.com/rest/v1/neo/3467180?api_key=iIulBulltgU6a56xZRHN4H3l9WmuAYTsLGpBGhQ2"
    },
    "id": "3467180",
    "neo_reference_id": "3467180",
    "name": "(2009 SF)",
    "designation": "2009 SF",
    "nasa_jpl_url": "http://ssd.jpl.nasa.gov/sbdb.cgi?sstr=3467180",
    "absolute_magnitude_h": 25.1,
    "estimated_diameter": {
        "kilometers": {
            "estimated_diameter_min": 0.0253837029,
            "estimated_diameter_max": 0.0567596853
        },
        "meters": {
            "estimated_diameter_min": 25.3837029364,
            "estimated_diameter_max": 56.7596852866
        },
        "miles": {
            "estimated_diameter_min": 0.0157726969,
            "estimated_diameter_max": 0.0352688224
        },
        "feet": {
            "estimated_diameter_min": 83.279867942,
            "estimated_diameter_max": 186.2194458756
        }
    },
    "is_potentially_hazardous_asteroid": false,
    "close_approach_data": [
        {
            "close_approach_date": "2009-09-16",
            "close_approach_date_full": "2009-Sep-16 19:28",
            "epoch_date_close_approach": 1253129280000,
            "relative_velocity": {
                "kilometers_per_second": "16.5240222693",
                "kilometers_per_hour": "59486.4801694894",
                "miles_per_hour": "36962.585414203"
            },
            "miss_distance": {
                "astronomical": "0.0907730942",
                "lunar": "35.3107336438",
                "kilometers": "13579461.545629354",
                "miles": "8437886.1344749252"
            },
            "orbiting_body": "Earth"
        }
    ],
    "orbital_data": {
        "orbit_id": "6",
        "orbit_determination_date": "2017-04-06 09:00:04",
        "first_observation_date": "2009-09-16",
        "last_observation_date": "2009-09-17",
        "data_arc_in_days": 1,
        "observations_used": 16,
        "orbit_uncertainty": "9",
        "minimum_orbit_intersection": ".0903814",
        "jupiter_tisserand_invariant": "4.276",
        "epoch_osculation": "2455091.5",
        "eccentricity": ".2934843248001086",
        "semi_major_axis": "1.539630286503651",
        "inclination": "30.45145772805381",
        "ascending_node_longitude": "353.5143771897627",
        "orbital_period": "697.7873553815372",
        "perihelion_distance": "1.087772931427329",
        "perihelion_argument": "14.87687265974717",
        "aphelion_distance": "1.991487641579973",
        "perihelion_time": "2455105.337088008354",
        "mean_anomaly": "352.8612181854689",
        "mean_motion": ".5159164854788156",
        "equinox": "J2000",
        "orbit_class": {
            "orbit_class_type": "AMO",
            "orbit_class_description": "Near-Earth asteroid orbits similar to that of 1221 Amor",
            "orbit_class_range": "1.017 AU < q (perihelion) < 1.3 AU"
        }
    },
    "is_sentry_object": false
}